ONEWEB-0492             
1 54114U 22138B   26027.36806286  .00000043  00000+0  75935-4 0  9996
2 54114  87.9245 332.9976 0001558  83.4714 276.6596 13.19726845158266
ONEWEB-0495             
1 54115U 22138C   26027.34595879  .00000055  00000+0  10417-3 0  9994
2 54115  87.9241 333.0042 0001207  66.2885 293.8374 13.19728105158242
ONEWEB-0497             
1 54116U 22138D   26027.35859259  .00000068  00000+0  13721-3 0  9996
2 54116  87.9244 332.9912 0001669  78.9820 281.1500 13.19727249158239
ONEWEB-0499             
1 54117U 22138E   26027.34200581  .00000058  00000+0  11179-3 0  9998
2 54117  87.9244 333.0053 0001728  72.2388 287.8933 13.19725974158247
ONEWEB-0500             
1 54118U 22138F   26027.34436521 -.00002089  00000+0 -52501-2 0  9995
2 54118  87.9243 332.9942 0001634  88.0118 272.1202 13.19738728158252
ONEWEB-0501             
1 54119U 22138G   26027.37438376  .00000016  00000+0  79298-5 0  9990
2 54119  87.9243 332.9895 0001495  70.2912 289.8382 13.19727449158230
ONEWEB-0502             
1 54120U 22138H   26027.36017321  .00000083  00000+0  17527-3 0  9993
2 54120  87.9252 332.9734 0001641  71.3113 288.8197 13.19726770158253
ONEWEB-0503             
1 54121U 22138J   26027.34911714  .00000087  00000+0  18575-3 0  9999
2 54121  87.9253 332.9794 0001964  73.4890 286.6458 13.19726630158244
